{"type": "FeatureCollection", "features": [ {"type": "Feature", "properties": {"norad_id": 35217, "name": "FENGYUN 1C DEB", "group": "fengyun-1c-debris", "lat": 15.847871417901509, "lon": 81.05246817742375, "alt_km": 1216.3562974894985, "timestamp": "2025-12-09T04:51:47.780772+00:00", "meta": {"OBJECT_NAME": "FENGYUN 1C DEB", "OBJECT_ID": "1999-025DPZ", "EPOCH": "2025-12-05T23:58:33.093696", "MEAN_MOTION": 13.57450047, "ECCENTRICITY": 0.03033796, "INCLINATION": 101.8756, "RA_OF_ASC_NODE": 253.7635, "ARG_OF_PERICENTER": 311.644, "MEAN_ANOMALY": 45.907, "EPHEMERIS_TYPE": 0, "CLASSIFICATION_TYPE": "U", "NORAD_CAT_ID": 35217, "ELEMENT_SET_NO": 999, "REV_AT_EPOCH": 61128, "BSTAR": 0.0049764515, "MEAN_MOTION_DOT": 4.747e-05, "MEAN_MOTION_DDOT": 0}, "tle": {"line1": "1 35217U 99025DPZ 25339.99899414  .00004747  00000+0  49765-2 0  9992", "line2": "2 35217 101.8756 253.7635 0303379 311.6440  45.9070 13.57450047611282"}}, "geometry": {"type": "Point", "coordinates": [81.05246817742375, 15.847871417901509]}}, {"type": "Feature", "properties": {"norad_id": 35220, "name": "FENGYUN 1C DEB", "group": "fengyun-1c-debris", "lat": -56.3007180664387, "lon": -140.64330829197206, "alt_km": 819.0593308559164, "timestamp": "2025-12-09T04:51:47.780782+00:00", "meta": {"OBJECT_NAME": "FENGYUN 1C DEB", "OBJECT_ID": "1999-025DQC", "EPOCH": "2025-12-03T04:15:21.001824", "MEAN_MOTION": 14.22451281, "ECCENTRICITY": 0.0043073, "INCLINATION": 99.0282, "RA_OF_ASC_NODE": 46.9795, "ARG_OF_PERICENTER": 335.8269, "MEAN_ANOMALY": 24.0886, "EPHEMERIS_TYPE": 0, "CLASSIFICATION_TYPE": "U", "NORAD_CAT_ID": 35220, "ELEMENT_SET_NO": 999, "REV_AT_EPOCH": 63047, "BSTAR": 0.0020517631, "MEAN_MOTION_DOT": 4.572e-05, "MEAN_MOTION_DDOT": 0}, "tle": {"line1": "1 35220U 99025DQC 25337.17732641  .00004572  00000+0  20518-2 0  9993", "line2": "2 35220  99.0282  46.9795 0043073 335.8269  24.0886 14.22451281630475"}}, "geometry": {"type": "Point", "coordinates": [-140.64330829197206, -56.3007180664387]}}, {"type": "Feature", "properties": {"norad_id": 35223, "name": "FENGYUN 1C DEB", "group": "fengyun-1c-debris", "lat": 60.56613165928981, "lon": -51.03696516941681, "alt_km": 585.0770060057939, "timestamp": "2025-12-09T04:51:47.780792+00:00", "meta": {"OBJECT_NAME": "FENGYUN 1C DEB", "OBJECT_ID": "1999-025DQF", "EPOCH": "2025-12-07T21:56:42.228096", "MEAN_MOTION": 14.88831664, "ECCENTRICITY": 0.01290174, "INCLINATION": 98.972, "RA_OF_ASC_NODE": 323.7649, "ARG_OF_PERICENTER": 341.9743, "MEAN_ANOMALY": 17.6916, "EPHEMERIS_TYPE": 0, "CLASSIFICATION_TYPE": "U", "NORAD_CAT_ID": 35223, "ELEMENT_SET_NO": 999, "REV_AT_EPOCH": 93810, "BSTAR": 0.0012358493, "MEAN_MOTION_DOT": 0.0001347, "MEAN_MOTION_DDOT": 0}, "tle": {"line1": "1 35223U 99025DQF 25341.91437764  .00013470  00000+0  12358-2 0  9991", "line2": "2 35223  98.9720 323.7649 0129017 341.9743  17.6916 14.88831664938107"}}, "geometry": {"type": "Point", "coordinates": [-51.03696516941681, 60.56613165928981]}}, {"type": "Feature", "properties": {"norad_id": 35229, "name": "FENGYUN 1C DEB", "group": "fengyun-1c-debris", "lat": 8.598841538437668, "lon": -116.5898993234068, "alt_km": 674.1037278252707, "timestamp": "2025-12-09T04:51:47.780802+00:00", "meta": {"OBJECT_NAME": "FENGYUN 1C DEB", "OBJECT_ID": "1999-025DQM", "EPOCH": "2025-12-02T10:53:02.570208", "MEAN_MOTION": 14.59759705, "ECCENTRICITY": 0.0047395, "INCLINATION": 98.4598, "RA_OF_ASC_NODE": 55.2366, "ARG_OF_PERICENTER": 244.9664, "MEAN_ANOMALY": 114.661, "EPHEMERIS_TYPE": 0, "CLASSIFICATION_TYPE": "U", "NORAD_CAT_ID": 35229, "ELEMENT_SET_NO": 999, "REV_AT_EPOCH": 64356, "BSTAR": 0.0066057982, "MEAN_MOTION_DOT": 0.00032123, "MEAN_MOTION_DDOT": 0}, "tle": {"line1": "1 35229U 99025DQM 25336.45350197  .00032123  00000+0  66058-2 0  9996", "line2": "2 35229  98.4598  55.2366 0047395 244.9664 114.6610 14.59759705643561"}}, "geometry": {"type": "Point", "coordinates": [-116.5898993234068, 8.598841538437668]}}, {"type": "Feature", "properties": {"norad_id": 35231, "name": "FENGYUN 1C DEB", "group": "fengyun-1c-debris", "lat": 6.2874705758387925, "lon": 25.48054018313545, "alt_km": 845.1065808478788, "timestamp": "2025-12-09T04:51:47.780812+00:00", "meta": {"OBJECT_NAME": "FENGYUN 1C DEB", "OBJECT_ID": "1999-025DQP", "EPOCH": "2025-12-08T13:33:16.551360", "MEAN_MOTION": 14.14527899, "ECCENTRICITY": 0.0038029, "INCLINATION": 98.7211, "RA_OF_ASC_NODE": 25.8267, "ARG_OF_PERICENTER": 96.7145, "MEAN_ANOMALY": 263.8358, "EPHEMERIS_TYPE": 0, "CLASSIFICATION_TYPE": "U", "NORAD_CAT_ID": 35231, "ELEMENT_SET_NO": 999, "REV_AT_EPOCH": 91443, "BSTAR": 4.8417e-05, "MEAN_MOTION_DOT": 5.1e-07, "MEAN_MOTION_DDOT": 0}, "tle": {"line1": "1 35231U 99025DQP 25342.56477490  .00000051  00000+0  48417-4 0  9990", "line2": "2 35231  98.7211  25.8267 0038029  96.7145 263.8358 14.14527899914434"}}, "geometry": {"type": "Point", "coordinates": [25.48054018313545, 6.2874705758387925]}}, {"type": "Feature", "properties": {"norad_id": 35233, "name": "FENGYUN 1C DEB", "group": "fengyun-1c-debris", "lat": 79.77482367352799, "lon": -38.90707016944057, "alt_km": 774.5133516450578, "timestamp": "2025-12-09T04:51:47.780822+00:00", "meta": {"OBJECT_NAME": "FENGYUN 1C DEB", "OBJECT_ID": "1999-025DQR", "EPOCH": "2025-12-08T05:14:28.388832", "MEAN_MOTION": 14.4177986, "ECCENTRICITY": 0.00412391, "INCLINATION": 98.7708, "RA_OF_ASC_NODE": 81.2245, "ARG_OF_PERICENTER": 274.5532, "MEAN_ANOMALY": 114.9681, "EPHEMERIS_TYPE": 0, "CLASSIFICATION_TYPE": "U", "NORAD_CAT_ID": 35233, "ELEMENT_SET_NO": 999, "REV_AT_EPOCH": 91111, "BSTAR": 0.002497777, "MEAN_MOTION_DOT": 8.202e-05, "MEAN_MOTION_DDOT": 0}, "tle": {"line1": "1 35233U 99025DQR 25342.21838413  .00008202  00000+0  24978-2 0  9990", "line2": "2 35233  98.7708  81.2245 0041239 274.5532 114.9681 14.41779860911116"}}, "geometry": {"type": "Point", "coordinates": [-38.90707016944057, 79.77482367352799]}}, {"type": "Feature", "properties": {"norad_id": 35234, "name": "FENGYUN 1C DEB", "group": "fengyun-1c-debris", "lat": -78.6251693536155, "lon": 56.03738782204254, "alt_km": 612.5223096824348, "timestamp": "2025-12-09T04:51:47.780832+00:00", "meta": {"OBJECT_NAME": "FENGYUN 1C DEB", "OBJECT_ID": "1999-025DQS", "EPOCH": "2025-12-08T19:24:00.899136", "MEAN_MOTION": 14.65517814, "ECCENTRICITY": 0.0099803, "INCLINATION": 98.0678, "RA_OF_ASC_NODE": 10.8162, "ARG_OF_PERICENTER": 275.0297, "MEAN_ANOMALY": 83.952, "EPHEMERIS_TYPE": 0, "CLASSIFICATION_TYPE": "U", "NORAD_CAT_ID": 35234, "ELEMENT_SET_NO": 999, "REV_AT_EPOCH": 94298, "BSTAR": 0.00094775, "MEAN_MOTION_DOT": 5.479e-05, "MEAN_MOTION_DDOT": 0}, "tle": {"line1": "1 35234U 99025DQS 25342.80834374  .00005479  00000+0  94775-3 0  9994", "line2": "2 35234  98.0678  10.8162 0099803 275.0297  83.9520 14.65517814942987"}}, "geometry": {"type": "Point", "coordinates": [56.03738782204254, -78.6251693536155]}}, {"type": "Feature", "properties": {"norad_id": 35239, "name": "FENGYUN 1C DEB", "group": "fengyun-1c-debris", "lat": 80.50716346952157, "lon": 41.53274070226679, "alt_km": 940.0707548508217, "timestamp": "2025-12-09T04:51:47.780843+00:00", "meta": {"OBJECT_NAME": "FENGYUN 1C DEB", "OBJECT_ID": "1999-025DQX", "EPOCH": "2025-12-08T03:52:46.542720", "MEAN_MOTION": 13.69201121, "ECCENTRICITY": 0.02297134, "INCLINATION": 99.2669, "RA_OF_ASC_NODE": 143.0123, "ARG_OF_PERICENTER": 22.3926, "MEAN_ANOMALY": 338.7058, "EPHEMERIS_TYPE": 0, "CLASSIFICATION_TYPE": "U", "NORAD_CAT_ID": 35239, "ELEMENT_SET_NO": 999, "REV_AT_EPOCH": 58068, "BSTAR": 0.0010411298, "MEAN_MOTION_DOT": 1.044e-05, "MEAN_MOTION_DDOT": 0}, "tle": {"line1": "1 35239U 99025DQX 25342.16164980  .00001044  00000+0  10411-2 0  9995", "line2": "2 35239  99.2669 143.0123 0229713  22.3926 338.7058 13.69201121580684"}}, "geometry": {"type": "Point", "coordinates": [41.53274070226679, 80.50716346952157]}}, {"type": "Feature", "properties": {"norad_id": 35240, "name": "FENGYUN 1C DEB", "group": "fengyun-1c-debris", "lat": -46.40118099950335, "lon": -44.623933226557455, "alt_km": 849.8108074556794, "timestamp": "2025-12-09T04:51:47.780853+00:00", "meta": {"OBJECT_NAME": "FENGYUN 1C DEB", "OBJECT_ID": "1999-025DQY", "EPOCH": "2025-12-07T21:01:45.903936", "MEAN_MOTION": 14.23240567, "ECCENTRICITY": 0.00458712, "INCLINATION": 99.3504, "RA_OF_ASC_NODE": 304.0042, "ARG_OF_PERICENTER": 165.9059, "MEAN_ANOMALY": 194.3409, "EPHEMERIS_TYPE": 0, "CLASSIFICATION_TYPE": "U", "NORAD_CAT_ID": 35240, "ELEMENT_SET_NO": 999, "REV_AT_EPOCH": 93095, "BSTAR": 0.0030168303, "MEAN_MOTION_DOT": 6.857e-05, "MEAN_MOTION_DDOT": 0}, "tle": {"line1": "1 35240U 99025DQY 25341.87622574  .00006857  00000+0  30168-2 0  9990", "line2": "2 35240  99.3504 304.0042 0045871 165.9059 194.3409 14.23240567930959"}}, "geometry": {"type": "Point", "coordinates": [-44.623933226557455, -46.40118099950335]}}, {"type": "Feature", "properties": {"norad_id": 35241, "name": "FENGYUN 1C DEB", "group": "fengyun-1c-debris", "lat": 14.421052881623364, "lon": 94.68354198400361, "alt_km": 828.512186248131, "timestamp": "2025-12-09T04:51:47.780863+00:00", "meta": {"OBJECT_NAME": "FENGYUN 1C DEB", "OBJECT_ID": "1999-025DQZ", "EPOCH": "2025-11-30T05:56:44.334240", "MEAN_MOTION": 14.01843685, "ECCENTRICITY": 0.01367336, "INCLINATION": 98.628, "RA_OF_ASC_NODE": 263.9706, "ARG_OF_PERICENTER": 244.1586, "MEAN_ANOMALY": 114.5426, "EPHEMERIS_TYPE": 0, "CLASSIFICATION_TYPE": "U", "NORAD_CAT_ID": 35241, "ELEMENT_SET_NO": 999, "REV_AT_EPOCH": 87431, "BSTAR": 0.001716208, "MEAN_MOTION_DOT": 2.791e-05, "MEAN_MOTION_DDOT": 0}, "tle": {"line1": "1 35241U 99025DQZ 25334.24773535  .00002791  00000+0  17162-2 0  9990", "line2": "2 35241  98.6280 263.9706 0136733 244.1586 114.5426 14.01843685874312"}}, "geometry": {"type": "Point", "coordinates": [94.68354198400361, 14.421052881623364]}}]}